OBJECT_NAME,OBJECT_ID,EPOCH,MEAN_MOTION,ECCENTRICITY,INCLINATION,RA_OF_ASC_NODE,ARG_OF_PERICENTER,MEAN_ANOMALY,EPHEMERIS_TYPE,CLASSIFICATION_TYPE,NORAD_CAT_ID,ELEMENT_SET_NO,REV_AT_EPOCH,BSTAR,MEAN_MOTION_DOT,MEAN_MOTION_DDOT
FARADAY_PHOENIX,2021-059AX,2026-06-11T12:11:34.293120,15.77019254,.0002426,97.6816,359.9107,329.9977,30.1149,0,U,48924,999,27676,.76561E-3,.125395E-2,0
DEMO8 (TENZING),2021-059CA,2026-06-11T12:19:43.609152,15.54781766,.0006772,97.7029,355.5025,16.5857,343.5616,0,U,48951,999,27642,.28895E-3,.19146E-3,0
NAPA-2,2021-059CN,2026-06-11T19:30:31.420224,15.97279939,.0002881,97.6693,1.2344,244.9538,115.1439,0,U,48963,999,27695,.74093E-3,.322095E-2,.44146E-4
FENGYUN 3E,2021-062A,2026-06-11T20:18:32.459328,14.19903830,.0002784,98.7494,166.3134,94.6394,265.5100,0,U,49008,999,25582,.4741E-4,.57E-6,0
ISS (NAUKA),2021-066A,2026-06-11T20:03:08.872704,15.49179015,.0004934,51.6334,326.5798,175.2433,184.8603,0,U,49044,999,57103,.13937E-3,.7284E-4,0
STARLINK-3100,2021-082Q,2026-06-11T02:22:02.330976,14.98329279,.00032312,70.0001,58.9308,270.7873,89.2916,0,U,49144,999,25997,-.16970991E-3,-.2117E-4,0
CUTE,2021-088D,2026-06-11T05:13:04.634400,15.91463951,.0007805,97.4171,260.9418,241.5311,118.5177,0,U,49263,999,26160,.53187E-3,.170126E-2,.12795E-4
2021-091B,2021-091B,2026-06-11T20:30:15.453792,15.18528616,.0014855,97.4480,350.5110,62.2038,298.0700,0,U,49316,999,25817,.13304E-3,.2685E-4,0
SDGSAT 1,2021-100A,2026-06-11T19:58:36.221088,15.19898470,.0006751,97.2645,209.9804,322.7726,37.3040,0,U,49387,999,25510,.57994E-4,.118E-4,0
TEIKYOSAT-4 (OORURI),2021-102B,2026-06-11T14:50:52.721664,15.09489641,.0010836,97.3672,192.3186,318.3974,41.6430,0,U,49396,999,25188,.11958E-3,.1857E-4,0
Z-SAT,2021-102E,2026-06-11T20:37:38.277120,15.18221160,.0014802,97.3332,198.3438,265.7820,94.1723,0,U,49399,999,25263,.13147E-3,.263E-4,0
HIBARI,2021-102F,2026-06-11T17:08:30.138144,15.31618612,.0010806,97.3244,208.6799,211.6516,148.4077,0,U,49400,999,25335,.31046E-3,.942E-4,0
KOSEN-1,2021-102H,2026-06-11T15:16:23.511072,15.26758585,.0012634,97.3194,204.9014,221.0806,138.9483,0,U,49402,999,25317,.25045E-3,.653E-4,0
GLOBAL-14,2021-106A,2026-06-11T03:50:01.106592,15.50302998,.00167407,42.0052,326.8943,337.2624,22.7477,0,U,49469,999,25719,.39448248E-3,.22809E-3,0
GAOFEN-3 02,2021-109A,2026-06-11T20:17:36.874752,14.42215959,.0003255,98.4092,171.0180,30.4914,329.6465,0,U,49495,999,23954,-.10514E-4,-.78E-6,0
GLOBAL-12,2021-115BA,2026-06-11T11:25:42.494592,15.53231408,.0003382,53.1954,71.9934,58.0826,302.0514,0,U,49772,999,25501,.5072E-3,.32115E-3,0
GLOBAL-13,2021-115BB,2026-06-11T11:53:13.288416,15.45825362,.0004109,53.1976,81.6403,96.8633,263.2843,0,U,49773,999,25488,.40409E-3,.19533E-3,0
GLOBAL-17,2021-120A,2026-06-11T11:46:23.601216,15.51955473,.0014887,41.9942,83.2302,219.7486,140.2269,0,U,49949,999,25401,.42884E-3,.26333E-3,0
GLOBAL-16,2021-120B,2026-06-11T11:54:47.378880,15.49906392,.0012715,41.9943,86.8211,212.0870,147.9201,0,U,49950,999,25396,.42119E-3,.23979E-3,0
XW-3 (CAS-9),2021-131B,2026-06-11T20:21:21.330720,14.41352794,.0005293,98.4973,255.2667,108.7025,251.4738,0,U,50466,999,23434,.16045E-3,.475E-5,0
ION SCV-004,2022-002K,2026-06-11T19:23:20.398272,15.30398530,.000775,97.2842,220.5674,26.3168,333.8466,0,U,50993,999,24447,.16231E-3,.47E-4,0
ETV-A1,2022-002CE,2026-06-11T19:37:27.124320,15.40569499,.0005133,97.2886,229.1384,22.9636,337.1840,0,U,51060,999,24501,.25656E-3,.10352E-3,0
BRO-5,2022-002CF,2026-06-11T19:38:24.377280,15.47071699,.000403,97.3005,236.4405,355.7728,4.3487,0,U,51061,999,24542,.54581E-3,.27598E-3,0
LUDI TANCE 1-01A (L-SAR 01A),2022-007A,2026-06-11T20:53:06.328896,14.88415486,.0001611,97.8098,170.3657,91.0272,269.1130,0,U,51284,999,23768,.61198E-4,.513E-5,0
LUDI TANCE 1-01B (L-SAR 01B),2022-018A,2026-06-11T21:41:29.175360,14.88411773,.0001584,97.8102,170.3949,91.3284,268.8115,0,U,51822,999,23292,.66164E-4,.559E-5,0
2022-023F,2022-023F,2026-06-11T20:59:04.564896,15.17946335,.0129368,63.4451,291.5422,342.6255,17.0450,0,U,51951,999,23690,.53659E-3,.13416E-3,0
MERIDIAN 10,2022-030A,2026-06-11T11:41:25.319040,2.00614267,.6782176,62.6777,141.4098,272.8584,17.6673,0,U,52145,999,3091,0,.24E-5,0
