FARADAY_PHOENIX         
1 48924U 21059AX  26162.50803580  .00125395  00000+0  76561-3 0  9992
2 48924  97.6816 359.9107 0002426 329.9977  30.1149 15.77019254276767
DEMO8 (TENZING)         
1 48951U 21059CA  26162.51369918  .00019146  00000+0  28895-3 0  9998
2 48951  97.7029 355.5025 0006772  16.5857 343.5616 15.54781766276421
NAPA-2                  
1 48963U 21059CN  26162.81286366  .00322095  44146-4  74093-3 0  9994
2 48963  97.6693   1.2344 0002881 244.9538 115.1439 15.97279939276954
FENGYUN 3E              
1 49008U 21062A   26162.84620902  .00000057  00000+0  47410-4 0  9991
2 49008  98.7494 166.3134 0002784  94.6394 265.5100 14.19903830255823
ISS (NAUKA)             
1 49044U 21066A   26162.83551936  .00007284  00000+0  13937-3 0  9999
2 49044  51.6334 326.5798 0004934 175.2433 184.8603 15.49179015571038
STARLINK-3100           
1 49144U 21082Q   26162.09863809 -.00002117  00000+0 -16971-3 0  9994
2 49144  70.0001  58.9308 0003231 270.7873  89.2916 14.98329279259979
CUTE                    
1 49263U 21088D   26162.21741475  .00170126  12795-4  53187-3 0  9993
2 49263  97.4171 260.9418 0007805 241.5311 118.5177 15.91463951261601
2021-091B               
1 49316U 21091B   26162.85434553  .00002685  00000+0  13304-3 0  9994
2 49316  97.4480 350.5110 0014855  62.2038 298.0700 15.18528616258178
SDGSAT 1                
1 49387U 21100A   26162.83236367  .00001180  00000+0  57994-4 0  9997
2 49387  97.2645 209.9804 0006751 322.7726  37.3040 15.19898470255108
TEIKYOSAT-4 (OORURI)    
1 49396U 21102B   26162.61866576  .00001857  00000+0  11958-3 0  9996
2 49396  97.3672 192.3186 0010836 318.3974  41.6430 15.09489641251889
Z-SAT                   
1 49399U 21102E   26162.85947080  .00002630  00000+0  13147-3 0  9997
2 49399  97.3332 198.3438 0014802 265.7820  94.1723 15.18221160252635
HIBARI                  
1 49400U 21102F   26162.71423771  .00009420  00000+0  31046-3 0  9993
2 49400  97.3244 208.6799 0010806 211.6516 148.4077 15.31618612253359
KOSEN-1                 
1 49402U 21102H   26162.63638323  .00006530  00000+0  25045-3 0  9998
2 49402  97.3194 204.9014 0012634 221.0806 138.9483 15.26758585253175
GLOBAL-14               
1 49469U 21106A   26162.15973503  .00022809  00000+0  39448-3 0  9993
2 49469  42.0052 326.8943 0016740 337.2624  22.7477 15.50302998257192
GAOFEN-3 02             
1 49495U 21109A   26162.84556568 -.00000078  00000+0 -10514-4 0  9999
2 49495  98.4092 171.0180 0003255  30.4914 329.6465 14.42215959239549
GLOBAL-12               
1 49772U 21115BA  26162.47618628  .00032115  00000+0  50720-3 0  9996
2 49772  53.1954  71.9934 0003382  58.0826 302.0514 15.53231408255016
GLOBAL-13               
1 49773U 21115BB  26162.49529269  .00019533  00000+0  40409-3 0  9993
2 49773  53.1976  81.6403 0004109  96.8633 263.2843 15.45825362254880
GLOBAL-17               
1 49949U 21120A   26162.49055094  .00026333  00000+0  42884-3 0  9999
2 49949  41.9942  83.2302 0014887 219.7486 140.2269 15.51955473254010
GLOBAL-16               
1 49950U 21120B   26162.49638170  .00023979  00000+0  42119-3 0  9997
2 49950  41.9943  86.8211 0012715 212.0870 147.9201 15.49906392253968
XW-3 (CAS-9)            
1 50466U 21131B   26162.84816355  .00000475  00000+0  16045-3 0  9990
2 50466  98.4973 255.2667 0005293 108.7025 251.4738 14.41352794234344
ION SCV-004             
1 50993U 22002K   26162.80787498  .00004700  00000+0  16231-3 0  9996
2 50993  97.2842 220.5674 0007750  26.3168 333.8466 15.30398530244472
ETV-A1                  
1 51060U 22002CE  26162.81767505  .00010352  00000+0  25656-3 0  9991
2 51060  97.2886 229.1384 0005133  22.9636 337.1840 15.40569499245013
BRO-5                   
1 51061U 22002CF  26162.81833770  .00027598  00000+0  54581-3 0  9999
2 51061  97.3005 236.4405 0004030 355.7728   4.3487 15.47071699245429
LUDI TANCE 1-01A (L-SA*)
1 51284U 22007A   26162.87021214  .00000513  00000+0  61198-4 0  9990
2 51284  97.8098 170.3657 0001611  91.0272 269.1130 14.88415486237689
LUDI TANCE 1-01B (L-SA*)
1 51822U 22018A   26162.90380990  .00000559  00000+0  66164-4 0  9991
2 51822  97.8102 170.3949 0001584  91.3284 268.8115 14.88411773232928
2022-023F               
1 51951U 22023F   26162.87435839  .00013416  00000+0  53659-3 0  9999
2 51951  63.4451 291.5422 0129368 342.6255  17.0450 15.17946335236908
MERIDIAN 10             
1 52145U 22030A   26162.48709860  .00000240  00000+0  00000+0 0  9997
2 52145  62.6777 141.4098 6782176 272.8584  17.6673  2.00614267 30915
